QIANFAN-89              
1 63175U 25046S   25331.02688109  .00000077  00000+0  10044-3 0  9992
2 63175  88.9754 321.6653 0016772 164.7582 195.4078 13.50979354 45286
QIANFAN-90              
1 63176U 25046T   25331.20377442  .00000013  00000+0  16068-5 0  9992
2 63176  88.9754 321.6194 0013791 161.0311 199.1357 13.50974582 45329
QIANFAN-91              
1 66033U 25233A   25331.00807957  .00000491  00000+0  29403-3 0  9997
2 66033  88.9962  63.8730 0019059  85.4007 274.9351 14.05350326  5787
QIANFAN-92              
1 66034U 25233B   25331.01140469  .00000379  00000+0  22589-3 0  9990
2 66034  88.9971  63.8750 0017342  86.3633 273.9531 14.05170618  5781
QIANFAN-93              
1 66035U 25233C   25331.07449365  .00000153  00000+0  87224-4 0  9992
2 66035  88.9964  63.8647 0017711  86.5526 273.7681 14.04503462  5793
QIANFAN-94              
1 66036U 25233D   25331.00681833  .00000339  00000+0  19872-3 0  9993
2 66036  88.9964  63.8736 0016816  87.2481 273.0626 14.05923644  5786
QIANFAN-95              
1 66037U 25233E   25330.96588323  .00000755  00000+0  31047-3 0  9998
2 66037  88.9966  63.8482 0016165  89.6247 270.6799 14.25961547  5791
QIANFAN-96              
1 66038U 25233F   25330.94735810  .00000366  00000+0  22213-3 0  9995
2 66038  88.9965  63.8823 0018361  88.7358 271.5927 14.04088221  5770
